[{"OBJECT_NAME":"MONOLITH","OBJECT_ID":"2021-068A","EPOCH":"2026-03-09T13:05:30.210720","MEAN_MOTION":15.08010119,"ECCENTRICITY":0.00026796,"INCLINATION":37.022,"RA_OF_ASC_NODE":141.2957,"ARG_OF_PERICENTER":131.6464,"MEAN_ANOMALY":228.4511,"EPHEMERIS_TYPE":0,"CLASSIFICATION_TYPE":"U","NORAD_CAT_ID":49052,"ELEMENT_SET_NO":999,"REV_AT_EPOCH":25222,"BSTAR":0.00053655804,"MEAN_MOTION_DOT":8.348e-5,"MEAN_MOTION_DDOT":0},{"OBJECT_NAME":"STARLINK-3332","OBJECT_ID":"2022-001Y","EPOCH":"2026-03-09T17:55:31.221696","MEAN_MOTION":15.08846097,"ECCENTRICITY":0.00011514,"INCLINATION":53.2155,"RA_OF_ASC_NODE":168.8647,"ARG_OF_PERICENTER":80.4473,"MEAN_ANOMALY":279.6649,"EPHEMERIS_TYPE":0,"CLASSIFICATION_TYPE":"U","NORAD_CAT_ID":50825,"ELEMENT_SET_NO":999,"REV_AT_EPOCH":23041,"BSTAR":-2.9360933e-5,"MEAN_MOTION_DOT":-7.55e-6,"MEAN_MOTION_DDOT":0}]
